[{"OBJECT_NAME":"OBJECT B","OBJECT_ID":"2024-092B","EPOCH":"2026-03-09T22:35:16.756224","MEAN_MOTION":15.26654665,"ECCENTRICITY":0.00097063,"INCLINATION":97.6334,"RA_OF_ASC_NODE":195.5822,"ARG_OF_PERICENTER":166.5945,"MEAN_ANOMALY":193.5553,"EPHEMERIS_TYPE":0,"CLASSIFICATION_TYPE":"U","NORAD_CAT_ID":59774,"ELEMENT_SET_NO":999,"REV_AT_EPOCH":10038,"BSTAR":0.00052893964,"MEAN_MOTION_DOT":0.00013825,"MEAN_MOTION_DDOT":0},{"OBJECT_NAME":"STARLINK-36431","OBJECT_ID":"2026-005T","EPOCH":"2026-03-09T22:00:01.999584","MEAN_MOTION":15.27537551,"ECCENTRICITY":0.00012342,"INCLINATION":42.9991,"RA_OF_ASC_NODE":237.0254,"ARG_OF_PERICENTER":268.8178,"MEAN_ANOMALY":229.7577,"EPHEMERIS_TYPE":0,"CLASSIFICATION_TYPE":"U","NORAD_CAT_ID":67421,"ELEMENT_SET_NO":999,"REV_AT_EPOCH":584,"BSTAR":0.0028284612,"MEAN_MOTION_DOT":0.00078299,"MEAN_MOTION_DDOT":0}]
